NORAD_CAT_ID,OBJECT_NAME,OBJECT_TYPE,EPOCH,MEAN_MOTION,ECCENTRICITY,INCLINATION,RA_OF_ASC_NODE,ARG_OF_PERICENTER,MEAN_ANOMALY,BSTAR,MEAN_MOTION_DOT,MEAN_MOTION_DDOT,TLE_LINE0,TLE_LINE1,TLE_LINE2,SEMIMAJOR_AXIS,PERIOD,APOGEE,PERIGEE,DECAYED
51995.0,STARLINK-3636,PAYLOAD,2022-12-20 18:37:17,15.08828408,0.0002139,53.2174,253.5132,60.4793,299.6412,-3.802e-05,-8.93e-06,0.0,0 STARLINK-3636,1 51995U 22025AR  22354.77590237 -.00000893  00000-0 -38020-4 0  9995,2 51995  53.2174 253.5132 0002139  60.4793 299.6412 15.08828408 45059,6917.916,95.438,541.261,538.3009999999998,0.0
51995.0,STARLINK-3636,PAYLOAD,2022-12-21 05:44:59,15.08836786,0.0001953,53.2171,251.4317,60.56800000000001,299.5507,2.8041e-05,1.58e-06,0.0,0 STARLINK-3636,1 51995U 22025AR  22355.23958020  .00000158  00000-0  28041-4 0  9999,2 51995  53.2171 251.4317 0001953  60.5680 299.5507 15.08836786 45127,6917.89,95.438,541.106,538.404,0.0
51995.0,STARLINK-3636,PAYLOAD,2022-12-22 02:25:00,15.08848356,0.0001636999999999,53.216,247.5679,62.2633,297.8525,0.00041021,6.248e-05,0.0,0 STARLINK-3636,1 51995U 22025AR  22356.10069592  .00006248  00000-0  41021-3 0  9991,2 51995  53.2160 247.5679 0001637  62.2633 297.8525 15.08848356 45259,6917.855,95.437,540.852,538.587,0.0
51995.0,STARLINK-3636,PAYLOAD,2022-12-22 10:21:55,15.08846557,0.0001615,53.2154,246.0804,64.9041,295.2118,0.00035488,5.365e-05,0.0,0 STARLINK-3636,1 51995U 22025AR  22356.43189619  .00005365  00000-0  35488-3 0  9999,2 51995  53.2154 246.0804 0001615  64.9041 295.2118 15.08846557 43781,6917.86,95.437,540.8430000000002,538.6080000000002,0.0
51995.0,STARLINK-3636,PAYLOAD,2022-12-22 16:43:28,15.08844287,0.000177,53.2156,244.8911,66.8861,293.2318,0.00025662,3.799e-05,0.0,0 STARLINK-3636,1 51995U 22025AR  22356.69685510  .00003799  00000-0  25662-3 0  9990,2 51995  53.2156 244.8911 0001770  66.8861 293.2318 15.08844287 45343,6917.8669999999975,95.437,540.957,538.508,0.0
51995.0,STARLINK-3636,PAYLOAD,2022-12-22 21:29:37,15.08843172,0.0001675999999999,53.2161,243.9979,69.104,291.0131,0.00024694,3.645e-05,0.0,0 STARLINK-3636,1 51995U 22025AR  22356.89557837  .00003645  00000-0  24694-3 0  9996,2 51995  53.2161 243.9979 0001676  69.1040 291.0131 15.08843172 43858,6917.871,95.437,540.895,538.576,0.0
51995.0,STARLINK-3636,PAYLOAD,2022-12-23 10:12:42,15.08844245,0.0001781,53.2159,241.6196,62.2855,297.8317,0.00012561,1.712e-05,0.0,0 STARLINK-3636,1 51995U 22025AR  22357.42549644  .00001712  00000-0  12561-3 0  9996,2 51995  53.2159 241.6196 0001781  62.2855 297.8317 15.08844245 43937,6917.8669999999975,95.437,540.964,538.5,0.0
51995.0,STARLINK-3636,PAYLOAD,2022-12-23 16:34:15,15.0884082,0.0001585,53.2159,240.4292,68.6561,291.4601,4.8755e-05,4.88e-06,0.0,0 STARLINK-3636,1 51995U 22025AR  22357.69045714  .00000488  00000-0  48755-4 0  9998,2 51995  53.2159 240.4292 0001585  68.6561 291.4601 15.08840820 45491,6917.878000000002,95.438,540.839,538.646,0.0
51995.0,STARLINK-3636,PAYLOAD,2022-12-23 19:45:01,15.0884217,0.0001671,53.2157,239.8346,69.983,290.1342,2.4551e-05,1.03e-06,0.0,0 STARLINK-3636,1 51995U 22025AR  22357.82293668  .00000103  00000-0  24551-4 0  9998,2 51995  53.2157 239.8346 0001671  69.9830 290.1342 15.08842170 43991,6917.874,95.437,540.895,538.5830000000002,0.0
51995.0,STARLINK-3636,PAYLOAD,2022-12-24 02:06:34,15.0884682,0.0001714,53.2157,238.6454,67.085,293.0323,5.8549e-05,6.44e-06,0.0,0 STARLINK-3636,1 51995U 22025AR  22358.08789497  .00000644  00000-0  58549-4 0  9991,2 51995  53.2157 238.6454 0001714  67.0850 293.0323 15.08846820 44030,6917.86,95.437,540.91,538.539,0.0
51995.0,STARLINK-3636,PAYLOAD,2022-12-24 18:00:25,15.08846645,0.0001636999999999,53.2155,235.6721,64.9338,295.1824,0.00020913,3.042e-05,0.0,0 STARLINK-3636,1 51995U 22025AR  22358.75029314  .00003042  00000-0  20913-3 0  9998,2 51995  53.2155 235.6721 0001637  64.9338 295.1824 15.08846645 45656,6917.86,95.437,540.8580000000002,538.5930000000002,0.0
51995.0,STARLINK-3636,PAYLOAD,2022-12-24 21:11:11,15.08843946,0.0001665,53.2154,235.077,64.9003,295.2162,0.00013179,1.810000000000001e-05,0.0,0 STARLINK-3636,1 51995U 22025AR  22358.88277441  .00001810  00000-0  13179-3 0  9995,2 51995  53.2154 235.0770 0001665  64.9003 295.2162 15.08843946 44154,6917.868,95.437,540.885,538.582,0.0
51995.0,STARLINK-3636,PAYLOAD,2022-12-25 01:57:21,15.08841423,0.0001629,53.2155,234.1852,58.2514,301.8636,0.00019703,2.849e-05,0.0,0 STARLINK-3636,1 51995U 22025AR  22359.08149573  .00002849  00000-0  19703-3 0  9994,2 51995  53.2155 234.1852 0001629  58.2514 301.8636 15.08841423 45709,6917.876,95.437,540.868,538.614,0.0
51995.0,STARLINK-3636,PAYLOAD,2022-12-25 16:15:49,15.08837109,0.0001584,53.215,231.5086,63.2118,296.9036,7.7579e-05,9.47e-06,0.0,0 STARLINK-3636,1 51995U 22025AR  22359.67765704  .00000947  00000-0  77579-4 0  9992,2 51995  53.2150 231.5086 0001584  63.2118 296.9036 15.08837109 44275,6917.889,95.438,540.85,538.658,0.0
51995.0,STARLINK-3636,PAYLOAD,2022-12-26 01:48:08,15.08836053,0.0001591,53.215,229.7243,61.3786,298.7366,-2.9468000000000013e-05,-7.57e-06,0.0,0 STARLINK-3636,1 51995U 22025AR  22360.07509731 -.00000757  00000-0 -29468-4 0  9999,2 51995  53.2150 229.7243 0001591  61.3786 298.7366 15.08836053 45855,6917.892,95.438,540.8580000000002,538.6569999999998,0.0
51995.0,STARLINK-3636,PAYLOAD,2022-12-26 08:09:40,15.08841291,0.0001569,53.2151,228.535,61.3005,298.8144,3.1197e-05,2.09e-06,0.0,0 STARLINK-3636,1 51995U 22025AR  22360.34005492  .00000209  00000-0  31197-4 0  9996,2 51995  53.2151 228.5350 0001569  61.3005 298.8144 15.08841291 44372,6917.876,95.437,540.827,538.656,0.0
51995.0,STARLINK-3636,PAYLOAD,2022-12-26 16:06:36,15.08842862,0.0001466,53.2161,227.0478,60.1013,300.0125,0.00012355,1.679e-05,0.0,0 STARLINK-3636,1 51995U 22025AR  22360.67125387  .00001679  00000-0  12355-3 0  9994,2 51995  53.2161 227.0478 0001466  60.1013 300.0125 15.08842862 45944,6917.871999999999,95.437,540.751,538.722,0.0
51995.0,STARLINK-3636,PAYLOAD,2022-12-27 08:00:27,15.08839612,0.0001603,53.217,224.074,61.8917,298.2237,5.1768e-05,5.36e-06,0.0,0 STARLINK-3636,1 51995U 22025AR  22361.33365703  .00000536  00000-0  51768-4 0  9999,2 51995  53.2170 224.0740 0001603  61.8917 298.2237 15.08839612 46040,6917.882,95.438,540.856,538.638,0.0
51995.0,STARLINK-3636,PAYLOAD,2022-12-27 14:22:00,15.0884104,0.0001513,53.2162,222.8846,60.69600000000001,299.4183,0.00012853,1.758e-05,0.0,0 STARLINK-3636,1 51995U 22025AR  22361.59861571  .00001758  00000-0  12853-3 0  9999,2 51995  53.2162 222.8846 0001513  60.6960 299.4183 15.08841040 44565,6917.877,95.437,540.789,538.696,0.0
51995.0,STARLINK-3636,PAYLOAD,2022-12-27 23:54:18,15.08848421,0.0001597,53.2154,221.1006,66.1252,293.9907,0.0001953,2.822e-05,0.0,0 STARLINK-3636,1 51995U 22025AR  22361.99605010  .00002822  00000-0  19530-3 0  9999,2 51995  53.2154 221.1006 0001597  66.1252 293.9907 15.08848421 46142,6917.855,95.437,540.8240000000002,538.615,0.0
51995.0,STARLINK-3636,PAYLOAD,2022-12-28 17:23:33,15.0884316,0.0001165,53.2151,217.8282,95.2994,264.8131,0.00015105,2.117e-05,0.0,0 STARLINK-3636,1 51995U 22025AR  22362.72468853  .00002117  00000-0  15105-3 0  9994,2 51995  53.2151 217.8282 0001165  95.2994 264.8131 15.08843160 46257,6917.871,95.437,540.5419999999998,538.93,0.0
51995.0,STARLINK-3636,PAYLOAD,2022-12-29 09:17:25,15.08829072,0.0001823,53.2148,214.8555,62.2772,297.8405,-8.1163e-05,-1.579e-05,0.0,0 STARLINK-3636,1 51995U 22025AR  22363.38709980 -.00001579  00000-0 -81163-4 0  9997,2 51995  53.2148 214.8555 0001823  62.2772 297.8405 15.08829072 46359,6917.9140000000025,95.438,541.04,538.518,0.0
51995.0,STARLINK-3636,PAYLOAD,2022-12-29 10:52:48,15.08830775,0.0001598,53.2158,214.5591,60.9736,299.1416,5.4064e-06,-2.02e-06,0.0,0 STARLINK-3636,1 51995U 22025AR  22363.45334372 -.00000202  00000-0  54064-5 0  9996,2 51995  53.2158 214.5591 0001598  60.9736 299.1416 15.08830775 44842,6917.909000000002,95.438,540.879,538.668,0.0
51995.0,STARLINK-3636,PAYLOAD,2022-12-30 07:32:49,15.08841787,0.0001592,53.2158,210.693,64.6364,295.4793,-1.4334e-05,-5.16e-06,0.0,0 STARLINK-3636,1 51995U 22025AR  22364.31445815 -.00000516  00000-0 -14334-4 0  9991,2 51995  53.2158 210.6930 0001592  64.6364 295.4793 15.08841787 46493,6917.875,95.437,540.841,538.639,0.0
51995.0,STARLINK-3636,PAYLOAD,2022-12-30 20:15:54,15.08843341,0.0001587,53.2158,208.3138,62.9119,297.2035,0.00011256,1.504e-05,0.0,0 STARLINK-3636,1 51995U 22025AR  22364.84437506  .00001504  00000-0  11256-3 0  9992,2 51995  53.2158 208.3138 0001587  62.9119 297.2035 15.08843341 45058,6917.87,95.437,540.8330000000002,538.637,0.0
51995.0,STARLINK-3636,PAYLOAD,2022-12-31 20:06:41,15.08834478,0.0001492,53.2158,203.853,64.4055,295.7091,0.00030898,4.632e-05,0.0,0 STARLINK-3636,1 51995U 22025AR  22365.83797621  .00004632  00000-0  30898-3 0  9997,2 51995  53.2158 203.8530 0001492  64.4055 295.7091 15.08834478 45208,6917.897,95.438,540.794,538.73,0.0
51995.0,STARLINK-3636,PAYLOAD,2023-01-01 12:00:33,15.08831879,0.0001575,53.2162,200.879,61.4694,298.6456,-1.6332e-05,-5.48e-06,0.0,0 STARLINK-3636,1 51995U 22025AR  23001.50038607 -.00000548  00000-0 -16332-4 0  9993,2 51995  53.2162 200.8790 0001575  61.4694 298.6456 15.08831879 46824,6917.905,95.438,540.86,538.681,0.0
51995.0,STARLINK-3636,PAYLOAD,2023-01-01 13:35:56,15.08830434,0.0001584,53.2161,200.5818,62.5236,297.5917,-2.2599e-05,-6.48e-06,0.0,0 STARLINK-3636,1 51995U 22025AR  23001.56662727 -.00000648  00000-0 -22599-4 0  9998,2 51995  53.2161 200.5818 0001584  62.5236 297.5917 15.08830434 45314,6917.91,95.438,540.87,538.679,0.0
51995.0,STARLINK-3636,PAYLOAD,2023-01-01 19:57:29,15.08830928,0.0001597,53.216,199.3924,62.5458,297.5697,-2.1244e-05,-6.26e-06,0.0,0 STARLINK-3636,1 51995U 22025AR  23001.83158794 -.00000626  00000-0 -21244-4 0  9994,2 51995  53.2160 199.3924 0001597  62.5458 297.5697 15.08830928 45353,6917.908,95.438,540.878,538.668,0.0
